[{"OBJECT_NAME":"INTELSAT 23 (IS-23)","OBJECT_ID":"2012-057A","EPOCH":"2026-03-06T18:50:28.896288","MEAN_MOTION":1.00269823,"ECCENTRICITY":0.0001213,"INCLINATION":0.0474,"RA_OF_ASC_NODE":260.7874,"ARG_OF_PERICENTER":96.9853,"MEAN_ANOMALY":36.333,"EPHEMERIS_TYPE":0,"CLASSIFICATION_TYPE":"U","NORAD_CAT_ID":38867,"ELEMENT_SET_NO":999,"REV_AT_EPOCH":4892,"BSTAR":0,"MEAN_MOTION_DOT":-2.88e-6,"MEAN_MOTION_DDOT":0},{"OBJECT_NAME":"FM-6","OBJECT_ID":"2013-058A","EPOCH":"2026-03-06T13:24:22.664160","MEAN_MOTION":1.00273294,"ECCENTRICITY":0.0003132,"INCLINATION":0.0219,"RA_OF_ASC_NODE":132.128,"ARG_OF_PERICENTER":55.3123,"MEAN_ANOMALY":61.761,"EPHEMERIS_TYPE":0,"CLASSIFICATION_TYPE":"U","NORAD_CAT_ID":39360,"ELEMENT_SET_NO":999,"REV_AT_EPOCH":4504,"BSTAR":0,"MEAN_MOTION_DOT":-2.1e-7,"MEAN_MOTION_DDOT":0},{"OBJECT_NAME":"INTELSAT 30 (IS-30)","OBJECT_ID":"2014-062A","EPOCH":"2026-03-05T20:23:30.045120","MEAN_MOTION":1.00273148,"ECCENTRICITY":0.00014953,"INCLINATION":0.0186,"RA_OF_ASC_NODE":81.7272,"ARG_OF_PERICENTER":27.0241,"MEAN_ANOMALY":265.6525,"EPHEMERIS_TYPE":0,"CLASSIFICATION_TYPE":"U","NORAD_CAT_ID":40271,"ELEMENT_SET_NO":999,"REV_AT_EPOCH":575,"BSTAR":0,"MEAN_MOTION_DOT":-1.57e-6,"MEAN_MOTION_DDOT":0},{"OBJECT_NAME":"DIRECTV 14","OBJECT_ID":"2014-078B","EPOCH":"2026-03-05T15:14:04.554816","MEAN_MOTION":1.00271102,"ECCENTRICITY":5.946e-5,"INCLINATION":0.0223,"RA_OF_ASC_NODE":140.6418,"ARG_OF_PERICENTER":348.2371,"MEAN_ANOMALY":163.7954,"EPHEMERIS_TYPE":0,"CLASSIFICATION_TYPE":"U","NORAD_CAT_ID":40333,"ELEMENT_SET_NO":999,"REV_AT_EPOCH":4100,"BSTAR":0,"MEAN_MOTION_DOT":0,"MEAN_MOTION_DDOT":0},{"OBJECT_NAME":"DIRECTV 15","OBJECT_ID":"2015-026A","EPOCH":"2026-03-06T13:28:07.305024","MEAN_MOTION":1.00272963,"ECCENTRICITY":6.192e-5,"INCLINATION":0.0234,"RA_OF_ASC_NODE":103.4295,"ARG_OF_PERICENTER":85.179,"MEAN_ANOMALY":74.8135,"EPHEMERIS_TYPE":0,"CLASSIFICATION_TYPE":"U","NORAD_CAT_ID":40663,"ELEMENT_SET_NO":999,"REV_AT_EPOCH":3943,"BSTAR":0,"MEAN_MOTION_DOT":-1.07e-6,"MEAN_MOTION_DDOT":0},{"OBJECT_NAME":"SKY MEXICO-1","OBJECT_ID":"2015-026B","EPOCH":"2026-03-05T10:11:56.023872","MEAN_MOTION":1.00269501,"ECCENTRICITY":0.000225,"INCLINATION":0.02,"RA_OF_ASC_NODE":125.8533,"ARG_OF_PERICENTER":238.8701,"MEAN_ANOMALY":232.6041,"EPHEMERIS_TYPE":0,"CLASSIFICATION_TYPE":"U","NORAD_CAT_ID":40664,"ELEMENT_SET_NO":999,"REV_AT_EPOCH":3941,"BSTAR":0,"MEAN_MOTION_DOT":-2.42e-6,"MEAN_MOTION_DDOT":0},{"OBJECT_NAME":"INTELSAT 34 (IS-34)","OBJECT_ID":"2015-039A","EPOCH":"2026-03-06T11:59:01.515840","MEAN_MOTION":1.00267445,"ECCENTRICITY":5.873e-5,"INCLINATION":0.0146,"RA_OF_ASC_NODE":175.2489,"ARG_OF_PERICENTER":272.5618,"MEAN_ANOMALY":200.6847,"EPHEMERIS_TYPE":0,"CLASSIFICATION_TYPE":"U","NORAD_CAT_ID":40874,"ELEMENT_SET_NO":999,"REV_AT_EPOCH":3859,"BSTAR":0,"MEAN_MOTION_DOT":0,"MEAN_MOTION_DDOT":0},{"OBJECT_NAME":"INTELSAT 31 (IS-31)","OBJECT_ID":"2016-035A","EPOCH":"2026-03-06T04:24:38.565216","MEAN_MOTION":1.00271168,"ECCENTRICITY":0.00015792,"INCLINATION":0.0328,"RA_OF_ASC_NODE":243.1779,"ARG_OF_PERICENTER":352.3525,"MEAN_ANOMALY":259.4775,"EPHEMERIS_TYPE":0,"CLASSIFICATION_TYPE":"U","NORAD_CAT_ID":41581,"ELEMENT_SET_NO":999,"REV_AT_EPOCH":3565,"BSTAR":0,"MEAN_MOTION_DOT":-1.56e-6,"MEAN_MOTION_DDOT":0},{"OBJECT_NAME":"INTELSAT 36 (IS-36)","OBJECT_ID":"2016-053A","EPOCH":"2026-03-05T13:22:09.737760","MEAN_MOTION":1.00269299,"ECCENTRICITY":0.0001513,"INCLINATION":0.02,"RA_OF_ASC_NODE":99.8975,"ARG_OF_PERICENTER":233.3854,"MEAN_ANOMALY":99.0273,"EPHEMERIS_TYPE":0,"CLASSIFICATION_TYPE":"U","NORAD_CAT_ID":41747,"ELEMENT_SET_NO":999,"REV_AT_EPOCH":3491,"BSTAR":0,"MEAN_MOTION_DOT":-3.1e-7,"MEAN_MOTION_DDOT":0},{"OBJECT_NAME":"INTELSAT 32E (IS-32E)","OBJECT_ID":"2017-007B","EPOCH":"2026-03-06T12:02:31.180992","MEAN_MOTION":1.00272679,"ECCENTRICITY":2.305e-5,"INCLINATION":0.0149,"RA_OF_ASC_NODE":127.3403,"ARG_OF_PERICENTER":194.7853,"MEAN_ANOMALY":339.5296,"EPHEMERIS_TYPE":0,"CLASSIFICATION_TYPE":"U","NORAD_CAT_ID":41945,"ELEMENT_SET_NO":999,"REV_AT_EPOCH":3319,"BSTAR":0,"MEAN_MOTION_DOT":-2.73e-6,"MEAN_MOTION_DDOT":0},{"OBJECT_NAME":"INTELSAT 35E (IS-35E)","OBJECT_ID":"2017-041A","EPOCH":"2026-03-06T18:55:43.394016","MEAN_MOTION":1.00272515,"ECCENTRICITY":0.0002081,"INCLINATION":0.0178,"RA_OF_ASC_NODE":226.4955,"ARG_OF_PERICENTER":121.8703,"MEAN_ANOMALY":65.5475,"EPHEMERIS_TYPE":0,"CLASSIFICATION_TYPE":"U","NORAD_CAT_ID":42818,"ELEMENT_SET_NO":999,"REV_AT_EPOCH":3178,"BSTAR":0,"MEAN_MOTION_DOT":-2.41e-6,"MEAN_MOTION_DDOT":0},{"OBJECT_NAME":"INTELSAT 37E (IS-37E)","OBJECT_ID":"2017-059A","EPOCH":"2026-03-06T19:00:27.938592","MEAN_MOTION":1.00271611,"ECCENTRICITY":0.0002137,"INCLINATION":0.0201,"RA_OF_ASC_NODE":141.0503,"ARG_OF_PERICENTER":208.5886,"MEAN_ANOMALY":81.9697,"EPHEMERIS_TYPE":0,"CLASSIFICATION_TYPE":"U","NORAD_CAT_ID":42950,"ELEMENT_SET_NO":999,"REV_AT_EPOCH":3103,"BSTAR":0,"MEAN_MOTION_DOT":-1.44e-6,"MEAN_MOTION_DDOT":0},{"OBJECT_NAME":"AZERSPACE 2 (IS-38)","OBJECT_ID":"2018-074A","EPOCH":"2026-03-05T07:35:38.770944","MEAN_MOTION":1.00271143,"ECCENTRICITY":0.0001446,"INCLINATION":0.0249,"RA_OF_ASC_NODE":144.2303,"ARG_OF_PERICENTER":216.1159,"MEAN_ANOMALY":321.7363,"EPHEMERIS_TYPE":0,"CLASSIFICATION_TYPE":"U","NORAD_CAT_ID":43632,"ELEMENT_SET_NO":999,"REV_AT_EPOCH":2740,"BSTAR":0,"MEAN_MOTION_DOT":0,"MEAN_MOTION_DDOT":0},{"OBJECT_NAME":"HORIZONS-3E","OBJECT_ID":"2018-074B","EPOCH":"2026-03-05T21:38:49.008768","MEAN_MOTION":1.00271692,"ECCENTRICITY":5.354e-5,"INCLINATION":0.016,"RA_OF_ASC_NODE":332.6823,"ARG_OF_PERICENTER":13.4082,"MEAN_ANOMALY":311.2086,"EPHEMERIS_TYPE":0,"CLASSIFICATION_TYPE":"U","NORAD_CAT_ID":43633,"ELEMENT_SET_NO":999,"REV_AT_EPOCH":2730,"BSTAR":0,"MEAN_MOTION_DOT":-3.7e-7,"MEAN_MOTION_DDOT":0},{"OBJECT_NAME":"AT&T T-16","OBJECT_ID":"2019-034A","EPOCH":"2026-03-05T23:47:14.192736","MEAN_MOTION":1.00273702,"ECCENTRICITY":8.909e-5,"INCLINATION":0.0236,"RA_OF_ASC_NODE":101.3996,"ARG_OF_PERICENTER":62.4405,"MEAN_ANOMALY":255.8141,"EPHEMERIS_TYPE":0,"CLASSIFICATION_TYPE":"U","NORAD_CAT_ID":44333,"ELEMENT_SET_NO":999,"REV_AT_EPOCH":2459,"BSTAR":0,"MEAN_MOTION_DOT":-1.21e-6,"MEAN_MOTION_DDOT":0},{"OBJECT_NAME":"INTELSAT 39 (IS-39)","OBJECT_ID":"2019-049B","EPOCH":"2026-03-05T10:52:07.171392","MEAN_MOTION":1.00269682,"ECCENTRICITY":7.21e-5,"INCLINATION":0.0244,"RA_OF_ASC_NODE":149.9814,"ARG_OF_PERICENTER":354.7122,"MEAN_ANOMALY":243.4677,"EPHEMERIS_TYPE":0,"CLASSIFICATION_TYPE":"U","NORAD_CAT_ID":44476,"ELEMENT_SET_NO":999,"REV_AT_EPOCH":2408,"BSTAR":0,"MEAN_MOTION_DOT":0,"MEAN_MOTION_DDOT":0},{"OBJECT_NAME":"GALAXY 30 (G-30)","OBJECT_ID":"2020-056C","EPOCH":"2026-03-06T13:21:45.416160","MEAN_MOTION":1.0027167,"ECCENTRICITY":0.00020484,"INCLINATION":0.0219,"RA_OF_ASC_NODE":155.3844,"ARG_OF_PERICENTER":200.5806,"MEAN_ANOMALY":243.7632,"EPHEMERIS_TYPE":0,"CLASSIFICATION_TYPE":"U","NORAD_CAT_ID":46114,"ELEMENT_SET_NO":999,"REV_AT_EPOCH":2026,"BSTAR":0,"MEAN_MOTION_DOT":0,"MEAN_MOTION_DDOT":0}]
